ASTROCAST-0403          
1 55111U 23001DG  26068.82333059  .00013959  00000+0  51317-3 0  9990
2 55111  97.5604 161.3228 0004770 338.0704  22.0330 15.28004949129376
STARLINK-32189          
1 60317U 24133S   26068.90637793 -.00000961  00000+0 -20334-4 0  9999
2 60317  53.1591 296.0444 0001156  85.3535 274.7597 15.30197277 91760
